[{"OBJECT_NAME":"STARLINK-4044","OBJECT_ID":"2022-053G","EPOCH":"2026-03-09T13:03:24.658560","MEAN_MOTION":15.08832233,"ECCENTRICITY":0.00013757,"INCLINATION":53.2179,"RA_OF_ASC_NODE":154.7777,"ARG_OF_PERICENTER":90.5323,"MEAN_ANOMALY":269.5827,"EPHEMERIS_TYPE":0,"CLASSIFICATION_TYPE":"U","NORAD_CAT_ID":52662,"ELEMENT_SET_NO":999,"REV_AT_EPOCH":21102,"BSTAR":2.984641e-6,"MEAN_MOTION_DOT":-2.4e-6,"MEAN_MOTION_DDOT":0},{"OBJECT_NAME":"OBJECT H","OBJECT_ID":"2025-292H","EPOCH":"2026-03-09T22:24:53.558208","MEAN_MOTION":15.06373042,"ECCENTRICITY":0.00142604,"INCLINATION":97.6442,"RA_OF_ASC_NODE":145.7846,"ARG_OF_PERICENTER":348.9217,"MEAN_ANOMALY":11.1694,"EPHEMERIS_TYPE":0,"CLASSIFICATION_TYPE":"U","NORAD_CAT_ID":67000,"ELEMENT_SET_NO":999,"REV_AT_EPOCH":1338,"BSTAR":0.0005462937,"MEAN_MOTION_DOT":8.001e-5,"MEAN_MOTION_DDOT":0}]
